{"type": "FeatureCollection", "features": [ {"type": "Feature", "properties": {"norad_id": 31182, "name": "FENGYUN 1C DEB", "group": "fengyun-1c-debris", "lat": -69.346123619464, "lon": 13.81850287314135, "alt_km": 867.544504450424, "timestamp": "2025-12-27T10:28:59.075378+00:00", "meta": {"OBJECT_NAME": "FENGYUN 1C DEB", "OBJECT_ID": "1999-025BJL", "EPOCH": "2025-12-22T19:20:53.254752", "MEAN_MOTION": 14.1456637, "ECCENTRICITY": 0.00235309, "INCLINATION": 98.6826, "RA_OF_ASC_NODE": 345.4013, "ARG_OF_PERICENTER": 108.6535, "MEAN_ANOMALY": 12.2806, "EPHEMERIS_TYPE": 0, "CLASSIFICATION_TYPE": "U", "NORAD_CAT_ID": 31182, "ELEMENT_SET_NO": 999, "REV_AT_EPOCH": 96223, "BSTAR": 0.00031151956, "MEAN_MOTION_DOT": 5.57e-06, "MEAN_MOTION_DDOT": 0}, "tle": {"line1": "1 31182U 99025BJL 25356.80617193  .00000557  00000+0  31152-3 0  9997", "line2": "2 31182  98.6826 345.4013 0023530 108.6535  12.2806 14.14566370962235"}}, "geometry": {"type": "Point", "coordinates": [13.81850287314135, -69.346123619464]}}, {"type": "Feature", "properties": {"norad_id": 31183, "name": "FENGYUN 1C DEB", "group": "fengyun-1c-debris", "lat": -59.25307908137157, "lon": 1.764583967618306, "alt_km": 750.0686812878739, "timestamp": "2025-12-27T10:28:59.075388+00:00", "meta": {"OBJECT_NAME": "FENGYUN 1C DEB", "OBJECT_ID": "1999-025BJM", "EPOCH": "2025-12-26T10:37:27.297120", "MEAN_MOTION": 14.50562406, "ECCENTRICITY": 0.0047805, "INCLINATION": 99.0384, "RA_OF_ASC_NODE": 345.1775, "ARG_OF_PERICENTER": 67.2137, "MEAN_ANOMALY": 84.4667, "EPHEMERIS_TYPE": 0, "CLASSIFICATION_TYPE": "U", "NORAD_CAT_ID": 31183, "ELEMENT_SET_NO": 999, "REV_AT_EPOCH": 97681, "BSTAR": 0.0013516, "MEAN_MOTION_DOT": 5.326e-05, "MEAN_MOTION_DDOT": 0}, "tle": {"line1": "1 31183U 99025BJM 25360.44267705  .00005326  00000+0  13516-2 0  9995", "line2": "2 31183  99.0384 345.1775 0047805  67.2137  84.4667 14.50562406976812"}}, "geometry": {"type": "Point", "coordinates": [1.764583967618306, -59.25307908137157]}}, {"type": "Feature", "properties": {"norad_id": 31185, "name": "FENGYUN 1C DEB", "group": "fengyun-1c-debris", "lat": -77.51777687665754, "lon": 132.85578360113678, "alt_km": 919.4149878611479, "timestamp": "2025-12-27T10:28:59.075398+00:00", "meta": {"OBJECT_NAME": "FENGYUN 1C DEB", "OBJECT_ID": "1999-025BJP", "EPOCH": "2025-12-03T06:44:56.905152", "MEAN_MOTION": 14.03019915, "ECCENTRICITY": 0.0041359, "INCLINATION": 98.8321, "RA_OF_ASC_NODE": 334.0356, "ARG_OF_PERICENTER": 132.5488, "MEAN_ANOMALY": 227.9182, "EPHEMERIS_TYPE": 0, "CLASSIFICATION_TYPE": "U", "NORAD_CAT_ID": 31185, "ELEMENT_SET_NO": 999, "REV_AT_EPOCH": 62204, "BSTAR": 0.0004459, "MEAN_MOTION_DOT": 6.55e-06, "MEAN_MOTION_DDOT": 0}, "tle": {"line1": "1 31185U 99025BJP 25337.28121418  .00000655  00000+0  44590-3 0  9990", "line2": "2 31185  98.8321 334.0356 0041359 132.5488 227.9182 14.03019915622046"}}, "geometry": {"type": "Point", "coordinates": [132.85578360113678, -77.51777687665754]}}, {"type": "Feature", "properties": {"norad_id": 31186, "name": "FENGYUN 1C DEB", "group": "fengyun-1c-debris", "lat": -65.07092618373866, "lon": 76.80510430394163, "alt_km": 870.2781635257506, "timestamp": "2025-12-27T10:28:59.075408+00:00", "meta": {"OBJECT_NAME": "FENGYUN 1C DEB", "OBJECT_ID": "1999-025BJQ", "EPOCH": "2025-12-25T13:43:17.153184", "MEAN_MOTION": 14.12928347, "ECCENTRICITY": 0.0026325, "INCLINATION": 99.179, "RA_OF_ASC_NODE": 275.2512, "ARG_OF_PERICENTER": 28.2591, "MEAN_ANOMALY": 97.0962, "EPHEMERIS_TYPE": 0, "CLASSIFICATION_TYPE": "U", "NORAD_CAT_ID": 31186, "ELEMENT_SET_NO": 999, "REV_AT_EPOCH": 96286, "BSTAR": 0.00048627, "MEAN_MOTION_DOT": 8.62e-06, "MEAN_MOTION_DDOT": 0}, "tle": {"line1": "1 31186U 99025BJQ 25359.57172631  .00000862  00000+0  48627-3 0  9995", "line2": "2 31186  99.1790 275.2512 0026325  28.2591  97.0962 14.12928347962860"}}, "geometry": {"type": "Point", "coordinates": [76.80510430394163, -65.07092618373866]}}, {"type": "Feature", "properties": {"norad_id": 31187, "name": "FENGYUN 1C DEB", "group": "fengyun-1c-debris", "lat": 78.70957286933763, "lon": 171.93105258440625, "alt_km": 697.8157837719873, "timestamp": "2025-12-27T10:28:59.075418+00:00", "meta": {"OBJECT_NAME": "FENGYUN 1C DEB", "OBJECT_ID": "1999-025BJR", "EPOCH": "2025-12-25T20:15:20.536416", "MEAN_MOTION": 14.59807877, "ECCENTRICITY": 0.0218863, "INCLINATION": 99.2406, "RA_OF_ASC_NODE": 224.7875, "ARG_OF_PERICENTER": 183.8683, "MEAN_ANOMALY": 176.0831, "EPHEMERIS_TYPE": 0, "CLASSIFICATION_TYPE": "U", "NORAD_CAT_ID": 31187, "ELEMENT_SET_NO": 999, "REV_AT_EPOCH": 69291, "BSTAR": 0.002922, "MEAN_MOTION_DOT": 0.00019543, "MEAN_MOTION_DDOT": 0}, "tle": {"line1": "1 31187U 99025BJR 25359.84398769  .00019543  00000+0  29220-2 0  9991", "line2": "2 31187  99.2406 224.7875 0218863 183.8683 176.0831 14.59807877692911"}}, "geometry": {"type": "Point", "coordinates": [171.93105258440625, 78.70957286933763]}}, {"type": "Feature", "properties": {"norad_id": 31188, "name": "FENGYUN 1C DEB", "group": "fengyun-1c-debris", "lat": 29.420754502339975, "lon": -105.8694365151507, "alt_km": 786.6618759814764, "timestamp": "2025-12-27T10:28:59.075429+00:00", "meta": {"OBJECT_NAME": "FENGYUN 1C DEB", "OBJECT_ID": "1999-025BJS", "EPOCH": "2025-12-26T03:40:58.068768", "MEAN_MOTION": 14.23911601, "ECCENTRICITY": 0.0060962, "INCLINATION": 98.7474, "RA_OF_ASC_NODE": 67.8728, "ARG_OF_PERICENTER": 210.9622, "MEAN_ANOMALY": 204.8886, "EPHEMERIS_TYPE": 0, "CLASSIFICATION_TYPE": "U", "NORAD_CAT_ID": 31188, "ELEMENT_SET_NO": 999, "REV_AT_EPOCH": 96527, "BSTAR": 0.0014628858, "MEAN_MOTION_DOT": 3.375e-05, "MEAN_MOTION_DDOT": 0}, "tle": {"line1": "1 31188U 99025BJS 25360.15344987  .00003375  00000+0  14629-2 0  9994", "line2": "2 31188  98.7474  67.8728 0060962 210.9622 204.8886 14.23911601965278"}}, "geometry": {"type": "Point", "coordinates": [-105.8694365151507, 29.420754502339975]}}, {"type": "Feature", "properties": {"norad_id": 31190, "name": "FENGYUN 1C DEB", "group": "fengyun-1c-debris", "lat": -39.66149332290014, "lon": 21.116213774898597, "alt_km": 897.3186946213382, "timestamp": "2025-12-27T10:28:59.075439+00:00", "meta": {"OBJECT_NAME": "FENGYUN 1C DEB", "OBJECT_ID": "1999-025BJU", "EPOCH": "2025-12-26T07:18:10.338912", "MEAN_MOTION": 14.03633883, "ECCENTRICITY": 0.0067717, "INCLINATION": 98.8194, "RA_OF_ASC_NODE": 12.6224, "ARG_OF_PERICENTER": 221.3183, "MEAN_ANOMALY": 138.285, "EPHEMERIS_TYPE": 0, "CLASSIFICATION_TYPE": "U", "NORAD_CAT_ID": 31190, "ELEMENT_SET_NO": 999, "REV_AT_EPOCH": 95737, "BSTAR": 0.00062245, "MEAN_MOTION_DOT": 9.55e-06, "MEAN_MOTION_DDOT": 0}, "tle": {"line1": "1 31190U 99025BJU 25360.30428633  .00000955  00000+0  62245-3 0  9994", "line2": "2 31190  98.8194  12.6224 0067717 221.3183 138.2850 14.03633883957377"}}, "geometry": {"type": "Point", "coordinates": [21.116213774898597, -39.66149332290014]}}, {"type": "Feature", "properties": {"norad_id": 31191, "name": "FENGYUN 1C DEB", "group": "fengyun-1c-debris", "lat": -4.528997564746723, "lon": -96.57598000878296, "alt_km": 819.3775012811147, "timestamp": "2025-12-27T10:28:59.075449+00:00", "meta": {"OBJECT_NAME": "FENGYUN 1C DEB", "OBJECT_ID": "1999-025BJV", "EPOCH": "2025-12-27T03:50:16.441728", "MEAN_MOTION": 14.40822618, "ECCENTRICITY": 0.0092986, "INCLINATION": 98.7827, "RA_OF_ASC_NODE": 262.4381, "ARG_OF_PERICENTER": 151.4879, "MEAN_ANOMALY": 209.1441, "EPHEMERIS_TYPE": 0, "CLASSIFICATION_TYPE": "U", "NORAD_CAT_ID": 31191, "ELEMENT_SET_NO": 999, "REV_AT_EPOCH": 98220, "BSTAR": 0.00035526, "MEAN_MOTION_DOT": 1.149e-05, "MEAN_MOTION_DDOT": 0}, "tle": {"line1": "1 31191U 99025BJV 25361.15991252  .00001149  00000+0  35526-3 0  9999", "line2": "2 31191  98.7827 262.4381 0092986 151.4879 209.1441 14.40822618982201"}}, "geometry": {"type": "Point", "coordinates": [-96.57598000878296, -4.528997564746723]}}, {"type": "Feature", "properties": {"norad_id": 31192, "name": "FENGYUN 1C DEB", "group": "fengyun-1c-debris", "lat": -70.67739258115859, "lon": 10.094403907800299, "alt_km": 956.1209829788086, "timestamp": "2025-12-27T10:28:59.075459+00:00", "meta": {"OBJECT_NAME": "FENGYUN 1C DEB", "OBJECT_ID": "1999-025BJW", "EPOCH": "2025-12-25T09:49:08.380128", "MEAN_MOTION": 14.20984359, "ECCENTRICITY": 0.0259636, "INCLINATION": 98.5541, "RA_OF_ASC_NODE": 342.7085, "ARG_OF_PERICENTER": 67.1108, "MEAN_ANOMALY": 295.7254, "EPHEMERIS_TYPE": 0, "CLASSIFICATION_TYPE": "U", "NORAD_CAT_ID": 31192, "ELEMENT_SET_NO": 999, "REV_AT_EPOCH": 96923, "BSTAR": 0.00037524, "MEAN_MOTION_DOT": 1.098e-05, "MEAN_MOTION_DDOT": 0}, "tle": {"line1": "1 31192U 99025BJW 25359.40912477  .00001098  00000+0  37524-3 0  9990", "line2": "2 31192  98.5541 342.7085 0259636  67.1108 295.7254 14.20984359969231"}}, "geometry": {"type": "Point", "coordinates": [10.094403907800299, -70.67739258115859]}}, {"type": "Feature", "properties": {"norad_id": 31194, "name": "FENGYUN 1C DEB", "group": "fengyun-1c-debris", "lat": -34.11278385122888, "lon": -102.75638561841598, "alt_km": 775.2725587908535, "timestamp": "2025-12-27T10:28:59.075469+00:00", "meta": {"OBJECT_NAME": "FENGYUN 1C DEB", "OBJECT_ID": "1999-025BJY", "EPOCH": "2025-12-26T16:15:31.311936", "MEAN_MOTION": 14.36725859, "ECCENTRICITY": 0.0056619, "INCLINATION": 98.9636, "RA_OF_ASC_NODE": 250.316, "ARG_OF_PERICENTER": 237.7081, "MEAN_ANOMALY": 121.8612, "EPHEMERIS_TYPE": 0, "CLASSIFICATION_TYPE": "U", "NORAD_CAT_ID": 31194, "ELEMENT_SET_NO": 999, "REV_AT_EPOCH": 97327, "BSTAR": 0.00096651733, "MEAN_MOTION_DOT": 2.855e-05, "MEAN_MOTION_DDOT": 0}, "tle": {"line1": "1 31194U 99025BJY 25360.67744574  .00002855  00000+0  96652-3 0  9993", "line2": "2 31194  98.9636 250.3160 0056619 237.7081 121.8612 14.36725859973272"}}, "geometry": {"type": "Point", "coordinates": [-102.75638561841598, -34.11278385122888]}}]}